{
  "type": "FeatureCollection",
  "features": [
    {
      "type": "Feature",
      "properties": {
        "norad_id": 66589,
        "name": "STARLINK-35447",
        "group": "last-30-days",
        "lat": 35.500184700543016,
        "lon": -168.63573963751492,
        "alt_km": 439.01921367016257,
        "timestamp": "2025-12-21T14:40:46.632181+00:00",
        "meta_object_name": "STARLINK-35447",
        "meta_object_id": "2025-270B",
        "meta_epoch": "2025-12-21T03:32:11.306112",
        "meta_mean_motion": 15.40725697,
        "meta_eccentricity": 0.00014934,
        "meta_inclination": 43,
        "meta_ra_of_asc_node": 144.0926,
        "meta_arg_of_pericenter": 271.8579,
        "meta_mean_anomaly": 88.2107,
        "meta_ephemeris_type": 0,
        "meta_classification_type": "U",
        "meta_norad_cat_id": 66589,
        "meta_element_set_no": 999,
        "meta_rev_at_epoch": 575,
        "meta_bstar": 0.00095698245,
        "meta_mean_motion_dot": 0.00039915,
        "meta_mean_motion_ddot": 0,
        "tle_line1": "1 66589U 25270B   25355.14735308  .00039915  00000+0  95698-3 0  9997",
        "tle_line2": "2 66589  43.0000 144.0926 0001493 271.8579  88.2107 15.40725697  5754"
      },
      "geometry": {
        "type": "Point",
        "coordinates": [
          -168.63573963751492,
          35.500184700543016
        ]
      }
    },
    {
      "type": "Feature",
      "properties": {
        "norad_id": 66590,
        "name": "STARLINK-35429",
        "group": "last-30-days",
        "lat": 22.723022796641203,
        "lon": -65.50052198117422,
        "alt_km": 441.20286797967765,
        "timestamp": "2025-12-21T14:40:46.632192+00:00",
        "meta_object_name": "STARLINK-35429",
        "meta_object_id": "2025-270C",
        "meta_epoch": "2025-12-21T06:00:00.999648",
        "meta_mean_motion": 15.4066447,
        "meta_eccentricity": 0.00016896,
        "meta_inclination": 43.0004,
        "meta_ra_of_asc_node": 143.2891,
        "meta_arg_of_pericenter": 273.767,
        "meta_mean_anomaly": 23.4685,
        "meta_ephemeris_type": 0,
        "meta_classification_type": "U",
        "meta_norad_cat_id": 66590,
        "meta_element_set_no": 999,
        "meta_rev_at_epoch": 587,
        "meta_bstar": 0.0010906073,
        "meta_mean_motion_dot": 0.00045472,
        "meta_mean_motion_ddot": 0,
        "tle_line1": "1 66590U 25270C   25355.25001157  .00045472  00000+0  10906-2 0  9992",
        "tle_line2": "2 66590  43.0004 143.2891 0001689 273.7670  23.4685 15.40664470  5878"
      },
      "geometry": {
        "type": "Point",
        "coordinates": [
          -65.50052198117422,
          22.723022796641203
        ]
      }
    },
    {
      "type": "Feature",
      "properties": {
        "norad_id": 66591,
        "name": "STARLINK-36058",
        "group": "last-30-days",
        "lat": -32.72125957082374,
        "lon": 4.584845129124942,
        "alt_km": 446.53440467321707,
        "timestamp": "2025-12-21T14:40:46.632202+00:00",
        "meta_object_name": "STARLINK-36058",
        "meta_object_id": "2025-270D",
        "meta_epoch": "2025-12-21T06:00:00.999648",
        "meta_mean_motion": 15.40647828,
        "meta_eccentricity": 0.0001473,
        "meta_inclination": 42.9994,
        "meta_ra_of_asc_node": 143.0776,
        "meta_arg_of_pericenter": 295.492,
        "meta_mean_anomaly": 88.7453,
        "meta_ephemeris_type": 0,
        "meta_classification_type": "U",
        "meta_norad_cat_id": 66591,
        "meta_element_set_no": 999,
        "meta_rev_at_epoch": 576,
        "meta_bstar": 0.0013283641,
        "meta_mean_motion_dot": 0.00055494,
        "meta_mean_motion_ddot": 0,
        "tle_line1": "1 66591U 25270D   25355.25001157  .00055494  00000+0  13284-2 0  9990",
        "tle_line2": "2 66591  42.9994 143.0776 0001473 295.4920  88.7453 15.40647828  5768"
      },
      "geometry": {
        "type": "Point",
        "coordinates": [
          4.584845129124942,
          -32.72125957082374
        ]
      }
    },
    {
      "type": "Feature",
      "properties": {
        "norad_id": 66592,
        "name": "STARLINK-36066",
        "group": "last-30-days",
        "lat": 5.978685253194929,
        "lon": 147.98627556511653,
        "alt_km": 442.85070283552614,
        "timestamp": "2025-12-21T14:40:46.632212+00:00",
        "meta_object_name": "STARLINK-36066",
        "meta_object_id": "2025-270E",
        "meta_epoch": "2025-12-20T19:58:19.508736",
        "meta_mean_motion": 15.40756255,
        "meta_eccentricity": 0.00020419,
        "meta_inclination": 43.0017,
        "meta_ra_of_asc_node": 146.0271,
        "meta_arg_of_pericenter": 265.6058,
        "meta_mean_anomaly": 94.4565,
        "meta_ephemeris_type": 0,
        "meta_classification_type": "U",
        "meta_norad_cat_id": 66592,
        "meta_element_set_no": 999,
        "meta_rev_at_epoch": 549,
        "meta_bstar": 0.00093716384,
        "meta_mean_motion_dot": 0.00039119,
        "meta_mean_motion_ddot": 0,
        "tle_line1": "1 66592U 25270E   25354.83217024  .00039119  00000+0  93716-3 0  9991",
        "tle_line2": "2 66592  43.0017 146.0271 0002041 265.6058  94.4565 15.40756255  5496"
      },
      "geometry": {
        "type": "Point",
        "coordinates": [
          147.98627556511653,
          5.978685253194929
        ]
      }
    },
    {
      "type": "Feature",
      "properties": {
        "norad_id": 66593,
        "name": "STARLINK-36031",
        "group": "last-30-days",
        "lat": 42.698810979342404,
        "lon": -120.66962085692039,
        "alt_km": 437.6279458507752,
        "timestamp": "2025-12-21T14:40:46.632223+00:00",
        "meta_object_name": "STARLINK-36031",
        "meta_object_id": "2025-270F",
        "meta_epoch": "2025-12-20T18:02:23.648640",
        "meta_mean_motion": 15.40728238,
        "meta_eccentricity": 9.427e-05,
        "meta_inclination": 42.999,
        "meta_ra_of_asc_node": 146.28,
        "meta_arg_of_pericenter": 262.0878,
        "meta_mean_anomaly": 97.9871,
        "meta_ephemeris_type": 0,
        "meta_classification_type": "U",
        "meta_norad_cat_id": 66593,
        "meta_element_set_no": 999,
        "meta_rev_at_epoch": 558,
        "meta_bstar": 0.00086483514,
        "meta_mean_motion_dot": 0.00036027,
        "meta_mean_motion_ddot": 0,
        "tle_line1": "1 66593U 25270F   25354.75166260  .00036027  00000+0  86484-3 0  9997",
        "tle_line2": "2 66593  42.9990 146.2800 0000942 262.0878  97.9871 15.40728238  5582"
      },
      "geometry": {
        "type": "Point",
        "coordinates": [
          -120.66962085692039,
          42.698810979342404
        ]
      }
    },
    {
      "type": "Feature",
      "properties": {
        "norad_id": 66594,
        "name": "STARLINK-36032",
        "group": "last-30-days",
        "lat": -10.284355049806729,
        "lon": -27.68826071389036,
        "alt_km": 444.4248600087949,
        "timestamp": "2025-12-21T14:40:46.632233+00:00",
        "meta_object_name": "STARLINK-36032",
        "meta_object_id": "2025-270G",
        "meta_epoch": "2025-12-21T06:00:00.999648",
        "meta_mean_motion": 15.4069306,
        "meta_eccentricity": 0.00015513,
        "meta_inclination": 43,
        "meta_ra_of_asc_node": 143.168,
        "meta_arg_of_pericenter": 252.5739,
        "meta_mean_anomaly": 94.2997,
        "meta_ephemeris_type": 0,
        "meta_classification_type": "U",
        "meta_norad_cat_id": 66594,
        "meta_element_set_no": 999,
        "meta_rev_at_epoch": 550,
        "meta_bstar": 0.001275876,
        "meta_mean_motion_dot": 0.00053354,
        "meta_mean_motion_ddot": 0,
        "tle_line1": "1 66594U 25270G   25355.25001157  .00053354  00000+0  12759-2 0  9992",
        "tle_line2": "2 66594  43.0000 143.1680 0001551 252.5739  94.2997 15.40693060  5501"
      },
      "geometry": {
        "type": "Point",
        "coordinates": [
          -27.68826071389036,
          -10.284355049806729
        ]
      }
    },
    {
      "type": "Feature",
      "properties": {
        "norad_id": 66595,
        "name": "STARLINK-35711",
        "group": "last-30-days",
        "lat": -35.50566766977987,
        "lon": 90.85710771155806,
        "alt_km": 417.0888850298152,
        "timestamp": "2025-12-21T14:40:46.632244+00:00",
        "meta_object_name": "STARLINK-35711",
        "meta_object_id": "2025-270H",
        "meta_epoch": "2025-12-20T03:22:00.602400",
        "meta_mean_motion": 15.5018184,
        "meta_eccentricity": 0.00034215,
        "meta_inclination": 42.999,
        "meta_ra_of_asc_node": 149.4265,
        "meta_arg_of_pericenter": 341.0071,
        "meta_mean_anomaly": 19.0661,
        "meta_ephemeris_type": 0,
        "meta_classification_type": "U",
        "meta_norad_cat_id": 66595,
        "meta_element_set_no": 999,
        "meta_rev_at_epoch": 560,
        "meta_bstar": 0.0012292638,
        "meta_mean_motion_dot": 0.00071426,
        "meta_mean_motion_ddot": 0,
        "tle_line1": "1 66595U 25270H   25354.14028475  .00071426  00000+0  12293-2 0  9995",
        "tle_line2": "2 66595  42.9990 149.4265 0003421 341.0071  19.0661 15.50181840  5600"
      },
      "geometry": {
        "type": "Point",
        "coordinates": [
          90.85710771155806,
          -35.50566766977987
        ]
      }
    }
  ]
}